ORBCOMM FM33            
1 25983U 99065D   24307.84253049  .00006389  00000+0  21036-2 0  9996
2 25983  45.0295 354.1806 0008639 346.8511  13.2112 14.38777023303520
ORBCOMM FM36            
1 25984U 99065E   24307.43878334  .00006648  00000+0  22757-2 0  9991
2 25984  45.0380  84.5217 0004841 231.0721 128.9696 14.36819847301792
ORBCOMM FM35            
1 25985U 99065F   24307.68823149  .00005403  00000+0  18872-2 0  9994
2 25985  45.0387  86.7462 0002576 319.4071  40.6585 14.36064549302405
ORBCOMM FM34            
1 25986U 99065G   24307.66010753  .00006112  00000+0  21269-2 0  9994
2 25986  45.0376  87.4222 0004206 268.0059  92.0307 14.36092036302363
ORBCOMM FM38            
1 33060U 08031A   24307.50797795  .00008767  00000+0  11914-2 0  9994
2 33060  48.4407 314.0655 0004720 143.8903 216.2331 14.79324142881165
ORBCOMM FM41            
1 33061U 08031B   24307.48149122  .00007301  00000+0  10049-2 0  9998
2 33061  48.4441 321.2470 0003873 127.1893  26.7171 14.78993457880659
ORBCOMM FM29            
1 33062U 08031C   24307.47462722  .00007870  00000+0  10807-2 0  9995
2 33062  48.4395 329.2908 0005567 126.7687  26.3893 14.78996611880562
ORBCOMM FM39            
1 33063U 08031D   24307.54116699  .00007728  00000+0  10920-2 0  9991
2 33063  48.4411 350.9431 0006472 100.4209 259.7435 14.77794370880256
