<?xml version="1.0" encoding="UTF-8"?>
<ndm xmlns:xsi="http://www.w3.org/2001/XMLSchema-instance" xsi:noNamespaceSchemaLocation="https://sanaregistry.org/r/ndmxml_unqualified/ndmxml-2.0.0-master-2.0.xsd">
<omm id="CCSDS_OMM_VERS" version="2.0">
<header><CREATION_DATE/><ORIGINATOR/></header><body><segment><metadata><OBJECT_NAME>ORBCOMM FM33</OBJECT_NAME><OBJECT_ID>1999-065D</OBJECT_ID><CENTER_NAME>EARTH</CENTER_NAME><REF_FRAME>TEME</REF_FRAME><TIME_SYSTEM>UTC</TIME_SYSTEM><MEAN_ELEMENT_THEORY>SGP4</MEAN_ELEMENT_THEORY></metadata><data><meanElements><EPOCH>2024-11-02T20:13:14.634336</EPOCH><MEAN_MOTION>14.38777023</MEAN_MOTION><ECCENTRICITY>.0008639</ECCENTRICITY><INCLINATION>45.0295</INCLINATION><RA_OF_ASC_NODE>354.1806</RA_OF_ASC_NODE><ARG_OF_PERICENTER>346.8511</ARG_OF_PERICENTER><MEAN_ANOMALY>13.2112</MEAN_ANOMALY></meanElements><tleParameters><EPHEMERIS_TYPE>0</EPHEMERIS_TYPE><CLASSIFICATION_TYPE>U</CLASSIFICATION_TYPE><NORAD_CAT_ID>25983</NORAD_CAT_ID><ELEMENT_SET_NO>999</ELEMENT_SET_NO><REV_AT_EPOCH>30352</REV_AT_EPOCH><BSTAR>.21036E-2</BSTAR><MEAN_MOTION_DOT>.6389E-4</MEAN_MOTION_DOT><MEAN_MOTION_DDOT>0</MEAN_MOTION_DDOT></tleParameters></data></segment></body></omm>
<omm id="CCSDS_OMM_VERS" version="2.0">
<header><CREATION_DATE/><ORIGINATOR/></header><body><segment><metadata><OBJECT_NAME>ORBCOMM FM36</OBJECT_NAME><OBJECT_ID>1999-065E</OBJECT_ID><CENTER_NAME>EARTH</CENTER_NAME><REF_FRAME>TEME</REF_FRAME><TIME_SYSTEM>UTC</TIME_SYSTEM><MEAN_ELEMENT_THEORY>SGP4</MEAN_ELEMENT_THEORY></metadata><data><meanElements><EPOCH>2024-11-02T10:31:50.880576</EPOCH><MEAN_MOTION>14.36819847</MEAN_MOTION><ECCENTRICITY>.0004841</ECCENTRICITY><INCLINATION>45.0380</INCLINATION><RA_OF_ASC_NODE>84.5217</RA_OF_ASC_NODE><ARG_OF_PERICENTER>231.0721</ARG_OF_PERICENTER><MEAN_ANOMALY>128.9696</MEAN_ANOMALY></meanElements><tleParameters><EPHEMERIS_TYPE>0</EPHEMERIS_TYPE><CLASSIFICATION_TYPE>U</CLASSIFICATION_TYPE><NORAD_CAT_ID>25984</NORAD_CAT_ID><ELEMENT_SET_NO>999</ELEMENT_SET_NO><REV_AT_EPOCH>30179</REV_AT_EPOCH><BSTAR>.22757E-2</BSTAR><MEAN_MOTION_DOT>.6648E-4</MEAN_MOTION_DOT><MEAN_MOTION_DDOT>0</MEAN_MOTION_DDOT></tleParameters></data></segment></body></omm>
<omm id="CCSDS_OMM_VERS" version="2.0">
<header><CREATION_DATE/><ORIGINATOR/></header><body><segment><metadata><OBJECT_NAME>ORBCOMM FM35</OBJECT_NAME><OBJECT_ID>1999-065F</OBJECT_ID><CENTER_NAME>EARTH</CENTER_NAME><REF_FRAME>TEME</REF_FRAME><TIME_SYSTEM>UTC</TIME_SYSTEM><MEAN_ELEMENT_THEORY>SGP4</MEAN_ELEMENT_THEORY></metadata><data><meanElements><EPOCH>2024-11-02T16:31:03.200736</EPOCH><MEAN_MOTION>14.36064549</MEAN_MOTION><ECCENTRICITY>.0002576</ECCENTRICITY><INCLINATION>45.0387</INCLINATION><RA_OF_ASC_NODE>86.7462</RA_OF_ASC_NODE><ARG_OF_PERICENTER>319.4071</ARG_OF_PERICENTER><MEAN_ANOMALY>40.6585</MEAN_ANOMALY></meanElements><tleParameters><EPHEMERIS_TYPE>0</EPHEMERIS_TYPE><CLASSIFICATION_TYPE>U</CLASSIFICATION_TYPE><NORAD_CAT_ID>25985</NORAD_CAT_ID><ELEMENT_SET_NO>999</ELEMENT_SET_NO><REV_AT_EPOCH>30240</REV_AT_EPOCH><BSTAR>.18872E-2</BSTAR><MEAN_MOTION_DOT>.5403E-4</MEAN_MOTION_DOT><MEAN_MOTION_DDOT>0</MEAN_MOTION_DDOT></tleParameters></data></segment></body></omm>
<omm id="CCSDS_OMM_VERS" version="2.0">
<header><CREATION_DATE/><ORIGINATOR/></header><body><segment><metadata><OBJECT_NAME>ORBCOMM FM34</OBJECT_NAME><OBJECT_ID>1999-065G</OBJECT_ID><CENTER_NAME>EARTH</CENTER_NAME><REF_FRAME>TEME</REF_FRAME><TIME_SYSTEM>UTC</TIME_SYSTEM><MEAN_ELEMENT_THEORY>SGP4</MEAN_ELEMENT_THEORY></metadata><data><meanElements><EPOCH>2024-11-02T15:50:33.290592</EPOCH><MEAN_MOTION>14.36092036</MEAN_MOTION><ECCENTRICITY>.0004206</ECCENTRICITY><INCLINATION>45.0376</INCLINATION><RA_OF_ASC_NODE>87.4222</RA_OF_ASC_NODE><ARG_OF_PERICENTER>268.0059</ARG_OF_PERICENTER><MEAN_ANOMALY>92.0307</MEAN_ANOMALY></meanElements><tleParameters><EPHEMERIS_TYPE>0</EPHEMERIS_TYPE><CLASSIFICATION_TYPE>U</CLASSIFICATION_TYPE><NORAD_CAT_ID>25986</NORAD_CAT_ID><ELEMENT_SET_NO>999</ELEMENT_SET_NO><REV_AT_EPOCH>30236</REV_AT_EPOCH><BSTAR>.21269E-2</BSTAR><MEAN_MOTION_DOT>.6112E-4</MEAN_MOTION_DOT><MEAN_MOTION_DDOT>0</MEAN_MOTION_DDOT></tleParameters></data></segment></body></omm>
<omm id="CCSDS_OMM_VERS" version="2.0">
<header><CREATION_DATE/><ORIGINATOR/></header><body><segment><metadata><OBJECT_NAME>ORBCOMM FM38</OBJECT_NAME><OBJECT_ID>2008-031A</OBJECT_ID><CENTER_NAME>EARTH</CENTER_NAME><REF_FRAME>TEME</REF_FRAME><TIME_SYSTEM>UTC</TIME_SYSTEM><MEAN_ELEMENT_THEORY>SGP4</MEAN_ELEMENT_THEORY></metadata><data><meanElements><EPOCH>2024-11-02T12:11:29.294880</EPOCH><MEAN_MOTION>14.79324142</MEAN_MOTION><ECCENTRICITY>.000472</ECCENTRICITY><INCLINATION>48.4407</INCLINATION><RA_OF_ASC_NODE>314.0655</RA_OF_ASC_NODE><ARG_OF_PERICENTER>143.8903</ARG_OF_PERICENTER><MEAN_ANOMALY>216.2331</MEAN_ANOMALY></meanElements><tleParameters><EPHEMERIS_TYPE>0</EPHEMERIS_TYPE><CLASSIFICATION_TYPE>U</CLASSIFICATION_TYPE><NORAD_CAT_ID>33060</NORAD_CAT_ID><ELEMENT_SET_NO>999</ELEMENT_SET_NO><REV_AT_EPOCH>88116</REV_AT_EPOCH><BSTAR>.11914E-2</BSTAR><MEAN_MOTION_DOT>.8767E-4</MEAN_MOTION_DOT><MEAN_MOTION_DDOT>0</MEAN_MOTION_DDOT></tleParameters></data></segment></body></omm>
<omm id="CCSDS_OMM_VERS" version="2.0">
<header><CREATION_DATE/><ORIGINATOR/></header><body><segment><metadata><OBJECT_NAME>ORBCOMM FM41</OBJECT_NAME><OBJECT_ID>2008-031B</OBJECT_ID><CENTER_NAME>EARTH</CENTER_NAME><REF_FRAME>TEME</REF_FRAME><TIME_SYSTEM>UTC</TIME_SYSTEM><MEAN_ELEMENT_THEORY>SGP4</MEAN_ELEMENT_THEORY></metadata><data><meanElements><EPOCH>2024-11-02T11:33:20.841408</EPOCH><MEAN_MOTION>14.78993457</MEAN_MOTION><ECCENTRICITY>.0003873</ECCENTRICITY><INCLINATION>48.4441</INCLINATION><RA_OF_ASC_NODE>321.2470</RA_OF_ASC_NODE><ARG_OF_PERICENTER>127.1893</ARG_OF_PERICENTER><MEAN_ANOMALY>26.7171</MEAN_ANOMALY></meanElements><tleParameters><EPHEMERIS_TYPE>0</EPHEMERIS_TYPE><CLASSIFICATION_TYPE>U</CLASSIFICATION_TYPE><NORAD_CAT_ID>33061</NORAD_CAT_ID><ELEMENT_SET_NO>999</ELEMENT_SET_NO><REV_AT_EPOCH>88065</REV_AT_EPOCH><BSTAR>.10049E-2</BSTAR><MEAN_MOTION_DOT>.7301E-4</MEAN_MOTION_DOT><MEAN_MOTION_DDOT>0</MEAN_MOTION_DDOT></tleParameters></data></segment></body></omm>
<omm id="CCSDS_OMM_VERS" version="2.0">
<header><CREATION_DATE/><ORIGINATOR/></header><body><segment><metadata><OBJECT_NAME>ORBCOMM FM29</OBJECT_NAME><OBJECT_ID>2008-031C</OBJECT_ID><CENTER_NAME>EARTH</CENTER_NAME><REF_FRAME>TEME</REF_FRAME><TIME_SYSTEM>UTC</TIME_SYSTEM><MEAN_ELEMENT_THEORY>SGP4</MEAN_ELEMENT_THEORY></metadata><data><meanElements><EPOCH>2024-11-02T11:23:27.791808</EPOCH><MEAN_MOTION>14.78996611</MEAN_MOTION><ECCENTRICITY>.0005567</ECCENTRICITY><INCLINATION>48.4395</INCLINATION><RA_OF_ASC_NODE>329.2908</RA_OF_ASC_NODE><ARG_OF_PERICENTER>126.7687</ARG_OF_PERICENTER><MEAN_ANOMALY>26.3893</MEAN_ANOMALY></meanElements><tleParameters><EPHEMERIS_TYPE>0</EPHEMERIS_TYPE><CLASSIFICATION_TYPE>U</CLASSIFICATION_TYPE><NORAD_CAT_ID>33062</NORAD_CAT_ID><ELEMENT_SET_NO>999</ELEMENT_SET_NO><REV_AT_EPOCH>88056</REV_AT_EPOCH><BSTAR>.10807E-2</BSTAR><MEAN_MOTION_DOT>.787E-4</MEAN_MOTION_DOT><MEAN_MOTION_DDOT>0</MEAN_MOTION_DDOT></tleParameters></data></segment></body></omm>
<omm id="CCSDS_OMM_VERS" version="2.0">
<header><CREATION_DATE/><ORIGINATOR/></header><body><segment><metadata><OBJECT_NAME>ORBCOMM FM39</OBJECT_NAME><OBJECT_ID>2008-031D</OBJECT_ID><CENTER_NAME>EARTH</CENTER_NAME><REF_FRAME>TEME</REF_FRAME><TIME_SYSTEM>UTC</TIME_SYSTEM><MEAN_ELEMENT_THEORY>SGP4</MEAN_ELEMENT_THEORY></metadata><data><meanElements><EPOCH>2024-11-02T12:59:16.827936</EPOCH><MEAN_MOTION>14.77794370</MEAN_MOTION><ECCENTRICITY>.0006472</ECCENTRICITY><INCLINATION>48.4411</INCLINATION><RA_OF_ASC_NODE>350.9431</RA_OF_ASC_NODE><ARG_OF_PERICENTER>100.4209</ARG_OF_PERICENTER><MEAN_ANOMALY>259.7435</MEAN_ANOMALY></meanElements><tleParameters><EPHEMERIS_TYPE>0</EPHEMERIS_TYPE><CLASSIFICATION_TYPE>U</CLASSIFICATION_TYPE><NORAD_CAT_ID>33063</NORAD_CAT_ID><ELEMENT_SET_NO>999</ELEMENT_SET_NO><REV_AT_EPOCH>88025</REV_AT_EPOCH><BSTAR>.1092E-2</BSTAR><MEAN_MOTION_DOT>.7728E-4</MEAN_MOTION_DOT><MEAN_MOTION_DDOT>0</MEAN_MOTION_DDOT></tleParameters></data></segment></body></omm>

</ndm>
